[{"OBJECT_NAME":"STARLINK-31570","OBJECT_ID":"2024-057E","EPOCH":"2026-03-09T08:33:51.691392","MEAN_MOTION":15.27569828,"ECCENTRICITY":7.151e-5,"INCLINATION":42.9966,"RA_OF_ASC_NODE":189.3406,"ARG_OF_PERICENTER":262.3342,"MEAN_ANOMALY":97.7428,"EPHEMERIS_TYPE":0,"CLASSIFICATION_TYPE":"U","NORAD_CAT_ID":59324,"ELEMENT_SET_NO":999,"REV_AT_EPOCH":10978,"BSTAR":1.0164709e-5,"MEAN_MOTION_DOT":1.8e-7,"MEAN_MOTION_DDOT":0},{"OBJECT_NAME":"CZ-2C R\/B","OBJECT_ID":"2014-014B","EPOCH":"2026-03-09T23:01:00.862464","MEAN_MOTION":15.34922702,"ECCENTRICITY":0.00700559,"INCLINATION":98.3314,"RA_OF_ASC_NODE":172.135,"ARG_OF_PERICENTER":276.2597,"MEAN_ANOMALY":83.0667,"EPHEMERIS_TYPE":0,"CLASSIFICATION_TYPE":"U","NORAD_CAT_ID":39625,"ELEMENT_SET_NO":999,"REV_AT_EPOCH":65564,"BSTAR":0.0004934259,"MEAN_MOTION_DOT":0.00018031,"MEAN_MOTION_DDOT":0}]
